ONEWEB-0698             
1 61604U 24188L   26095.26293706  .00000096  00000+0  23365-3 0  9993
2 61604  87.8906  35.5781 0003057  77.0203 283.1267 13.11420692 74919
ONEWEB-0699             
1 61605U 24188M   26095.29409819 -.00000469  00000+0 -13794-2 0  9991
2 61605  87.8833  50.7701 0002418  69.0185 291.1201 13.10374085 73762
ONEWEB-0700             
1 61606U 24188N   26095.29574851 -.00000400  00000+0 -11811-2 0  9994
2 61606  87.8848  50.6670 0002154  62.5129 297.6217 13.10376882 73750
ONEWEB-0701             
1 61607U 24188P   26095.23601180  .00000430  00000+0  11949-2 0  9998
2 61607  87.8825  50.7812 0002556  66.4498 293.6898 13.10376330 73752
ONEWEB-0702             
1 61608U 24188Q   26095.23241761 -.00000285  00000+0 -83895-3 0  9994
2 61608  87.8922  35.4771 0002431  56.4982 303.6378 13.11415065 74929
ONEWEB-0704             
1 61609U 24188R   26095.14803220 -.00000147  00000+0 -45824-3 0  9996
2 61609  87.8842  50.7779 0002354  57.0140 303.1213 13.10375809 73726
ONEWEB-0705             
1 61610U 24188S   26095.15299824  .00000036  00000+0  68056-4 0  9996
2 61610  87.8832  50.7875 0001387  41.9082 318.2151 13.10376827 65894
ONEWEB-0706             
1 61611U 24188T   26095.29076437 -.00000503  00000+0 -14764-2 0  9991
2 61611  87.8823  50.7704 0001948  61.5446 298.5877 13.10375995 73834
ONEWEB-0707             
1 61612U 24188U   26095.14469472 -.00000300  00000+0 -89523-3 0  9992
2 61612  87.8834  50.7888 0002031  63.2254 296.9081 13.10377074 73750
ONEWEB-0708             
1 61613U 24188V   26095.16297144  .00000469  00000+0  13059-2 0  9994
2 61613  87.8818  50.8104 0001337  72.8789 287.2485 13.10375156 73730
