[{"OBJECT_NAME":"ONEWEB-0698","OBJECT_ID":"2024-188L","EPOCH":"2026-04-05T06:18:37.761984","MEAN_MOTION":13.11420692,"ECCENTRICITY":0.0003057,"INCLINATION":87.8906,"RA_OF_ASC_NODE":35.5781,"ARG_OF_PERICENTER":77.0203,"MEAN_ANOMALY":283.1267,"EPHEMERIS_TYPE":0,"CLASSIFICATION_TYPE":"U","NORAD_CAT_ID":61604,"ELEMENT_SET_NO":999,"REV_AT_EPOCH":7491,"BSTAR":0.00023365000000000001,"MEAN_MOTION_DOT":9.6e-07,"MEAN_MOTION_DDOT":0.0},{"OBJECT_NAME":"ONEWEB-0699","OBJECT_ID":"2024-188M","EPOCH":"2026-04-05T07:03:30.083616","MEAN_MOTION":13.10374085,"ECCENTRICITY":0.0002418,"INCLINATION":87.8833,"RA_OF_ASC_NODE":50.7701,"ARG_OF_PERICENTER":69.0185,"MEAN_ANOMALY":291.1201,"EPHEMERIS_TYPE":0,"CLASSIFICATION_TYPE":"U","NORAD_CAT_ID":61605,"ELEMENT_SET_NO":999,"REV_AT_EPOCH":7376,"BSTAR":-0.0013794,"MEAN_MOTION_DOT":-4.69e-06,"MEAN_MOTION_DDOT":0.0},{"OBJECT_NAME":"ONEWEB-0700","OBJECT_ID":"2024-188N","EPOCH":"2026-04-05T07:05:52.671264","MEAN_MOTION":13.10376882,"ECCENTRICITY":0.0002154,"INCLINATION":87.8848,"RA_OF_ASC_NODE":50.667,"ARG_OF_PERICENTER":62.5129,"MEAN_ANOMALY":297.6217,"EPHEMERIS_TYPE":0,"CLASSIFICATION_TYPE":"U","NORAD_CAT_ID":61606,"ELEMENT_SET_NO":999,"REV_AT_EPOCH":7375,"BSTAR":-0.0011811,"MEAN_MOTION_DOT":-4e-06,"MEAN_MOTION_DDOT":0.0},{"OBJECT_NAME":"ONEWEB-0701","OBJECT_ID":"2024-188P","EPOCH":"2026-04-05T05:39:51.419520","MEAN_MOTION":13.1037633,"ECCENTRICITY":0.0002556,"INCLINATION":87.8825,"RA_OF_ASC_NODE":50.7812,"ARG_OF_PERICENTER":66.4498,"MEAN_ANOMALY":293.6898,"EPHEMERIS_TYPE":0,"CLASSIFICATION_TYPE":"U","NORAD_CAT_ID":61607,"ELEMENT_SET_NO":999,"REV_AT_EPOCH":7375,"BSTAR":0.0011949,"MEAN_MOTION_DOT":4.3e-06,"MEAN_MOTION_DDOT":0.0},{"OBJECT_NAME":"ONEWEB-0702","OBJECT_ID":"2024-188Q","EPOCH":"2026-04-05T05:34:40.881504","MEAN_MOTION":13.11415065,"ECCENTRICITY":0.0002431,"INCLINATION":87.8922,"RA_OF_ASC_NODE":35.4771,"ARG_OF_PERICENTER":56.4982,"MEAN_ANOMALY":303.6378,"EPHEMERIS_TYPE":0,"CLASSIFICATION_TYPE":"U","NORAD_CAT_ID":61608,"ELEMENT_SET_NO":999,"REV_AT_EPOCH":7492,"BSTAR":-0.00083895,"MEAN_MOTION_DOT":-2.85e-06,"MEAN_MOTION_DDOT":0.0},{"OBJECT_NAME":"ONEWEB-0704","OBJECT_ID":"2024-188R","EPOCH":"2026-04-05T03:33:09.982080","MEAN_MOTION":13.10375809,"ECCENTRICITY":0.0002354,"INCLINATION":87.8842,"RA_OF_ASC_NODE":50.7779,"ARG_OF_PERICENTER":57.014,"MEAN_ANOMALY":303.1213,"EPHEMERIS_TYPE":0,"CLASSIFICATION_TYPE":"U","NORAD_CAT_ID":61609,"ELEMENT_SET_NO":999,"REV_AT_EPOCH":7372,"BSTAR":-0.00045824,"MEAN_MOTION_DOT":-1.47e-06,"MEAN_MOTION_DDOT":0.0},{"OBJECT_NAME":"ONEWEB-0705","OBJECT_ID":"2024-188S","EPOCH":"2026-04-05T03:40:19.047936","MEAN_MOTION":13.10376827,"ECCENTRICITY":0.0001387,"INCLINATION":87.8832,"RA_OF_ASC_NODE":50.7875,"ARG_OF_PERICENTER":41.9082,"MEAN_ANOMALY":318.2151,"EPHEMERIS_TYPE":0,"CLASSIFICATION_TYPE":"U","NORAD_CAT_ID":61610,"ELEMENT_SET_NO":999,"REV_AT_EPOCH":6589,"BSTAR":6.805600000000001e-05,"MEAN_MOTION_DOT":3.6e-07,"MEAN_MOTION_DDOT":0.0},{"OBJECT_NAME":"ONEWEB-0706","OBJECT_ID":"2024-188T","EPOCH":"2026-04-05T06:58:42.041568","MEAN_MOTION":13.10375995,"ECCENTRICITY":0.0001948,"INCLINATION":87.8823,"RA_OF_ASC_NODE":50.7704,"ARG_OF_PERICENTER":61.5446,"MEAN_ANOMALY":298.5877,"EPHEMERIS_TYPE":0,"CLASSIFICATION_TYPE":"U","NORAD_CAT_ID":61611,"ELEMENT_SET_NO":999,"REV_AT_EPOCH":7383,"BSTAR":-0.0014763999999999999,"MEAN_MOTION_DOT":-5.03e-06,"MEAN_MOTION_DDOT":0.0},{"OBJECT_NAME":"ONEWEB-0707","OBJECT_ID":"2024-188U","EPOCH":"2026-04-05T03:28:21.623808","MEAN_MOTION":13.10377074,"ECCENTRICITY":0.0002031,"INCLINATION":87.8834,"RA_OF_ASC_NODE":50.7888,"ARG_OF_PERICENTER":63.2254,"MEAN_ANOMALY":296.9081,"EPHEMERIS_TYPE":0,"CLASSIFICATION_TYPE":"U","NORAD_CAT_ID":61612,"ELEMENT_SET_NO":999,"REV_AT_EPOCH":7375,"BSTAR":-0.00089523,"MEAN_MOTION_DOT":-3e-06,"MEAN_MOTION_DDOT":0.0},{"OBJECT_NAME":"ONEWEB-0708","OBJECT_ID":"2024-188V","EPOCH":"2026-04-05T03:54:40.732416","MEAN_MOTION":13.10375156,"ECCENTRICITY":0.0001337,"INCLINATION":87.8818,"RA_OF_ASC_NODE":50.8104,"ARG_OF_PERICENTER":72.8789,"MEAN_ANOMALY":287.2485,"EPHEMERIS_TYPE":0,"CLASSIFICATION_TYPE":"U","NORAD_CAT_ID":61613,"ELEMENT_SET_NO":999,"REV_AT_EPOCH":7373,"BSTAR":0.0013059000000000002,"MEAN_MOTION_DOT":4.69e-06,"MEAN_MOTION_DDOT":0.0}]